NORAD_CAT_ID,OBJECT_NAME,OBJECT_TYPE,EPOCH,MEAN_MOTION,ECCENTRICITY,INCLINATION,RA_OF_ASC_NODE,ARG_OF_PERICENTER,MEAN_ANOMALY,BSTAR,MEAN_MOTION_DOT,MEAN_MOTION_DDOT,TLE_LINE0,TLE_LINE1,TLE_LINE2,SEMIMAJOR_AXIS,PERIOD,APOGEE,PERIGEE,DECAYED
55300.0,STARLINK-5308,PAYLOAD,2024-04-06 23:28:19,14.98331974,0.000242,70.0009,353.5541,266.0479,94.0404,-2.7854e-07,-9.6e-07,0.0,0 STARLINK-5308,1 55300U 23010AH  24097.97800290 -.00000096  00000-0 -27854-6 0  9995,2 55300  70.0009 353.5541 0002420 266.0479  94.0404 14.98331974 68160,6950.187,96.107,573.734,570.37,0.0
55300.0,STARLINK-5308,PAYLOAD,2024-04-07 10:41:15,14.98335639,0.0002744,70.0004,352.3782,269.1654,90.9191,-0.00014784,-1.857e-05,0.0,0 STARLINK-5308,1 55300U 23010AH  24098.44532218 -.00001857  00000-0 -14784-3 0  9991,2 55300  70.0004 352.3782 0002744 269.1654  90.9191 14.98335639 68235,6950.175,96.107,573.948,570.133,0.0
55300.0,STARLINK-5308,PAYLOAD,2024-04-07 21:54:11,14.98335976,0.0002894,70.0,351.1999,273.9162,86.1666,-0.00011195,-1.429e-05,0.0,0 STARLINK-5308,1 55300U 23010AH  24098.91263847 -.00001429  00000-0 -11195-3 0  9990,2 55300  70.0000 351.1999 0002894 273.9162  86.1666 14.98335976 68307,6950.174,96.107,574.051,570.028,0.0
55300.0,STARLINK-5308,PAYLOAD,2024-04-08 02:42:32,14.98376063,0.0002891,70.0004,350.6955,265.1505,94.9324,0.00033598,3.923e-05,0.0,0 STARLINK-5308,1 55300U 23010AH  24099.11287861  .00003923  00000-0  33598-3 0  9995,2 55300  70.0004 350.6955 0002891 265.1505  94.9324 14.98376063 68027,6950.05,96.104,573.925,569.906,0.0
55300.0,STARLINK-5308,PAYLOAD,2024-04-08 23:32:17,14.9835117,0.0002299,70.0026,348.5047,274.2637,85.826,0.00029427,3.422e-05,0.0,0 STARLINK-5308,1 55300U 23010AH  24099.98076097  .00003422  00000-0  29427-3 0  9997,2 55300  70.0026 348.5047 0002299 274.2637  85.8260 14.98351170 68466,6950.127,96.106,573.59,570.395,0.0
55300.0,STARLINK-5308,PAYLOAD,2024-04-09 02:44:35,14.98323299,0.0002813,70.0002,348.17,270.5417,89.5419,-0.00013421,-1.694e-05,0.0,0 STARLINK-5308,1 55300U 23010AH  24100.11430545 -.00001694  00000-0 -13421-3 0  9995,2 55300  70.0002 348.1700 0002813 270.5417  89.5419 14.98323299 68175,6950.214,96.107,574.034,570.124,0.0
55300.0,STARLINK-5308,PAYLOAD,2024-04-09 09:09:08,14.98317334,0.0002732,70.0002,347.4966,270.5236,89.561,-0.00017853,-2.222e-05,0.0,0 STARLINK-5308,1 55300U 23010AH  24100.38135109 -.00002222  00000-0 -17853-3 0  9993,2 55300  70.0002 347.4966 0002732 270.5236  89.5610 14.98317334 68525,6950.232,96.108,573.996,570.198,0.0
55300.0,STARLINK-5308,PAYLOAD,2024-04-10 02:46:37,14.98327719,0.0002667,70.0004,345.6452,268.2364,91.849,-0.00033394,-4.075e-05,0.0,0 STARLINK-5308,1 55300U 23010AH  24101.11571225 -.00004075  00000-0 -33394-3 0  9994,2 55300  70.0004 345.6452 0002667 268.2364  91.8490 14.98327719 68328,6950.2,96.107,573.919,570.211,0.0
55300.0,STARLINK-5308,PAYLOAD,2024-04-10 09:11:09,14.98328083,0.0002631,70.0004,344.9721,267.9232,92.1626,-0.00030718,-3.756e-05,0.0,0 STARLINK-5308,1 55300U 23010AH  24101.38275168 -.00003756  00000-0 -30718-3 0  9992,2 55300  70.0004 344.9721 0002631 267.9232  92.1626 14.98328083 68678,6950.199,96.107,573.892,570.235,0.0
55300.0,STARLINK-5308,PAYLOAD,2024-04-10 22:00:14,14.98308955,0.0002728,70.0004,343.6253,267.0925,92.9921,6.3976e-05,6.7e-06,0.0,0 STARLINK-5308,1 55300U 23010AH  24101.91683246  .00000670  00000-0  63976-4 0  9994,2 55300  70.0004 343.6253 0002728 267.0925  92.9921 14.98308955 68752,6950.258,96.108,574.019,570.227,0.0
55300.0,STARLINK-5308,PAYLOAD,2024-04-11 09:13:10,14.98315472,0.0002704,70.0003,342.447,267.8887,92.1962,0.00012402,1.387e-05,0.0,0 STARLINK-5308,1 55300U 23010AH  24102.38415245  .00001387  00000-0  12402-3 0  9991,2 55300  70.0003 342.4470 0002704 267.8887  92.1962 14.98315472 68511,6950.238,96.108,573.982,570.223,0.0
55300.0,STARLINK-5308,PAYLOAD,2024-04-11 20:26:06,14.98322563,0.0002879,69.9999,341.2684,268.5767,91.5062,0.00020145,2.311e-05,0.0,0 STARLINK-5308,1 55300U 23010AH  24102.85146864  .00002311  00000-0  20145-3 0  9992,2 55300  69.9999 341.2684 0002879 268.5767  91.5062 14.98322563 68584,6950.216,96.107,574.082,570.08,0.0
55300.0,STARLINK-5308,PAYLOAD,2024-04-11 22:02:14,14.98324945,0.0002915,69.9997,341.0998,268.6332,91.4493,0.00015114,1.711e-05,0.0,0 STARLINK-5308,1 55300U 23010AH  24102.91822914  .00001711  00000-0  15114-3 0  9999,2 55300  69.9997 341.0998 0002915 268.6332  91.4493 14.98324945 68907,6950.209,96.107,574.1,570.048,0.0
55300.0,STARLINK-5308,PAYLOAD,2024-04-12 01:14:30,14.98327725,0.0002877,69.9997,340.7633,268.5931,91.4898,0.00017752,2.026e-05,0.0,0 STARLINK-5308,1 55300U 23010AH  24103.05174697  .00002026  00000-0  17752-3 0  9993,2 55300  69.9997 340.7633 0002877 268.5931  91.4898 14.98327725 68920,6950.2,96.107,574.064,570.065,0.0
55300.0,STARLINK-5308,PAYLOAD,2024-04-12 22:04:16,14.98324418,0.0002436,70.0008,338.5754,271.4917,88.5963,7.8825e-05,8.48e-06,0.0,0 STARLINK-5308,1 55300U 23010AH  24103.91963562  .00000848  00000-0  78825-4 0  9994,2 55300  70.0008 338.5754 0002436 271.4917  88.5963 14.98324418 69054,6950.21,96.107,573.768,570.382,0.0
55300.0,STARLINK-5308,PAYLOAD,2024-04-13 01:16:32,14.98326902,0.0003001,69.9996,338.2387,269.3761,90.7054,2.0306e-05,1.49e-06,0.0,0 STARLINK-5308,1 55300U 23010AH  24104.05315446  .00000149  00000-0  20306-4 0  9997,2 55300  69.9996 338.2387 0003001 269.3761  90.7054 14.98326902 68761,6950.202,96.107,574.153,569.982,0.0
55300.0,STARLINK-5308,PAYLOAD,2024-04-13 20:30:09,14.98331752,0.0002811,69.9999,336.2186,269.5509,90.5328,-4.436e-05,-6.22e-06,0.0,0 STARLINK-5308,1 55300U 23010AH  24104.85427383 -.00000622  00000-0 -44360-4 0  9993,2 55300  69.9999 336.2186 0002811 269.5509  90.5328 14.98331752 69198,6950.187,96.107,574.006,570.099,0.0
55300.0,STARLINK-5308,PAYLOAD,2024-04-14 01:18:33,14.98333117,0.0002809,70.0,335.714,269.0385,91.0452,-2.9829e-05,-4.49e-06,0.0,0 STARLINK-5308,1 55300U 23010AH  24105.05455225 -.00000449  00000-0 -29829-4 0  9992,2 55300  70.0000 335.7140 0002809 269.0385  91.0452 14.98333117 68912,6950.183,96.107,574.001,570.096,0.0
55300.0,STARLINK-5308,PAYLOAD,2024-04-14 22:08:18,14.98329188,0.0002836,69.9999,333.5257,268.9406,91.1429,1.2734e-05,5.9e-07,0.0,0 STARLINK-5308,1 55300U 23010AH  24105.92243258  .00000059  00000-0  12734-4 0  9991,2 55300  69.9999 333.5257 0002836 268.9406  91.1429 14.98329188 69350,6950.195,96.107,574.031,570.089,0.0
55300.0,STARLINK-5308,PAYLOAD,2024-04-15 01:20:34,14.98330602,0.0002832,70.0,333.1892,268.7646,91.3188,2.8563e-05,2.48e-06,0.0,0 STARLINK-5308,1 55300U 23010AH  24106.05595120  .00000248  00000-0  28563-4 0  9991,2 55300  70.0000 333.1892 0002832 268.7646  91.3188 14.98330602 69062,6950.191,96.107,574.024,570.088,0.0
55300.0,STARLINK-5308,PAYLOAD,2024-04-15 20:34:11,14.98329056,0.0002795,70.0,331.17,264.0866,95.9974,-1.4954e-05,-2.71e-06,0.0,0 STARLINK-5308,1 55300U 23010AH  24106.85707317 -.00000271  00000-0 -14954-4 0  9999,2 55300  70.0000 331.1700 0002795 264.0866  95.9974 14.98329056 69490,6950.196,96.107,574.003,570.118,0.0
55300.0,STARLINK-5308,PAYLOAD,2024-04-16 01:22:35,14.98330848,0.0002764,70.0,330.6654,262.5067,97.5778,6.8605e-06,-1.1e-07,0.0,0 STARLINK-5308,1 55300U 23010AH  24107.05735128 -.00000011  00000-0  68605-5 0  9997,2 55300  70.0000 330.6654 0002764 262.5067  97.5778 14.98330848 69215,6950.19,96.107,573.976,570.134,0.0
55300.0,STARLINK-5308,PAYLOAD,2024-04-16 07:47:07,14.98326217,0.0002499,70.0004,329.9901,264.2719,95.8155,0.00010897,1.207e-05,0.0,0 STARLINK-5308,1 55300U 23010AH  24107.32439251  .00001207  00000-0  10897-3 0  9990,2 55300  70.0004 329.9901 0002499 264.2719  95.8155 14.98326217 69566,6950.205,96.107,573.806,570.333,0.0
55300.0,STARLINK-5308,PAYLOAD,2024-04-16 22:12:19,14.98337285,0.0002605,69.9991,328.474,269.0171,91.0689,7.0843e-05,7.53e-06,0.0,0 STARLINK-5308,1 55300U 23010AH  24107.92522352  .00000753  00000-0  70843-4 0  9994,2 55300  69.9991 328.4740 0002605 269.0171  91.0689 14.98337285 69654,6950.17,96.107,573.846,570.225,0.0
55300.0,STARLINK-5308,PAYLOAD,2024-04-16 23:48:26,14.98342762,0.000296,69.9991,328.3081,257.4691,102.6137,0.00010375,1.146e-05,0.0,0 STARLINK-5308,1 55300U 23010AH  24107.99197738  .00001146  00000-0  10375-3 0  9997,2 55300  69.9991 328.3081 0002960 257.4691 102.6137 14.98342762 69353,6950.153,96.106,574.076,569.961,0.0
55300.0,STARLINK-5308,PAYLOAD,2024-04-17 20:38:14,14.98312466,0.0002785,69.9999,326.1188,255.7539,104.3311,-0.00023011,-2.836e-05,0.0,0 STARLINK-5308,1 55300U 23010AH  24108.85988711 -.00002836  00000-0 -23011-3 0  9992,2 55300  69.9999 326.1188 0002785 255.7539 104.3311 14.98312466 69487,6950.247,96.108,574.048,570.176,0.0
55300.0,STARLINK-5308,PAYLOAD,2024-04-17 23:50:30,14.98313455,0.0002819,69.9996,325.7807,263.8777,96.2061,-0.00023176,-2.856e-05,0.0,0 STARLINK-5308,1 55300U 23010AH  24108.99340810 -.00002856  00000-0 -23176-3 0  9993,2 55300  69.9996 325.7807 0002819 263.8777  96.2061 14.98313455 69816,6950.244,96.108,574.068,570.15,0.0
55300.0,STARLINK-5308,PAYLOAD,2024-04-18 20:40:14,14.98331162,0.0003232,69.9982,323.592,265.977,94.102,-8.7627e-05,-1.138e-05,0.0,0 STARLINK-5308,1 55300U 23010AH  24109.86127574 -.00001138  00000-0 -87627-4 0  9994,2 55300  69.9982 323.5920 0003232 265.9770  94.1020 14.98331162 69636,6950.189,96.107,574.301,569.808,0.0
55300.0,STARLINK-5308,PAYLOAD,2024-04-18 23:52:29,14.9833865,0.0003166,69.9985,323.2565,262.3089,97.771,-5.6729e-07,-1e-06,0.0,0 STARLINK-5308,1 55300U 23010AH  24109.99478813 -.00000100  00000-0 -56729-6 0  9992,2 55300  69.9985 323.2565 0003166 262.3089  97.7710 14.98338650 69657,6950.166,96.106,574.232,569.831,0.0
55300.0,STARLINK-5308,PAYLOAD,2024-04-19 14:17:42,14.98323832,0.000317,69.9988,321.7408,265.4436,94.6361,0.00019819,2.272e-05,0.0,0 STARLINK-5308,1 55300U 23010AH  24110.59563103  .00002272  00000-0  19819-3 0  9993,2 55300  69.9988 321.7408 0003170 265.4436  94.6361 14.98323832 70054,6950.212,96.107,574.28,569.874,0.0
